{
  "type": "FeatureCollection",
  "name": "regioni_italiane_punti",
  "crs": {
    "type": "name",
    "properties": {
      "name": "urn:ogc:def:crs:OGC:1.3:CRS84"
    }
  },
  "features": [
    {
      "type": "Feature",
      "properties": {
        "id": 1,
        "regione": "Abruzzo",
        "capoluogo": "L'Aquila"
      },
      "geometry": {
        "type": "Point",
        "coordinates": [13.3995, 42.3498]
      }
    },
    {
      "type": "Feature",
      "properties": {
        "id": 3,
        "regione": "Calabria",
        "capoluogo": "Catanzaro"
      },
      "geometry": {
        "type": "Point",
        "coordinates": [16.5944, 38.9098]
      }
    },
    {
      "type": "Feature",
      "properties": {
        "id": 4,
        "regione": "Campania",
        "capoluogo": "Napoli"
      },
      "geometry": {
        "type": "Point",
        "coordinates": [14.2681, 40.8518]
      }
    },
    {
      "type": "Feature",
      "properties": {
        "id": 5,
        "regione": "Emilia-Romagna",
        "capoluogo": "Bologna"
      },
      "geometry": {
        "type": "Point",
        "coordinates": [11.3426, 44.4949]
      }
    },
    {
      "type": "Feature",
      "properties": {
        "id": 6,
        "regione": "Friuli-Venezia Giulia",
        "capoluogo": "Trieste"
      },
      "geometry": {
        "type": "Point",
        "coordinates": [13.7768, 45.6495]
      }
    },
    {
      "type": "Feature",
      "properties": {
        "id": 7,
        "regione": "Lazio",
        "capoluogo": "Roma"
      },
      "geometry": {
        "type": "Point",
        "coordinates": [12.4964, 41.9028]
      }
    },
    {
      "type": "Feature",
      "properties": {
        "id": 8,
        "regione": "Liguria",
        "capoluogo": "Genova"
      },
      "geometry": {
        "type": "Point",
        "coordinates": [8.9463, 44.4056]
      }
    },
    {
      "type": "Feature",
      "properties": {
        "id": 9,
        "regione": "Lombardia",
        "capoluogo": "Milano"
      },
      "geometry": {
        "type": "Point",
        "coordinates": [9.19, 45.4642]
      }
    },
    {
      "type": "Feature",
      "properties": {
        "id": 10,
        "regione": "Marche",
        "capoluogo": "Ancona"
      },
      "geometry": {
        "type": "Point",
        "coordinates": [13.5189, 43.6158]
      }
    },
    {
      "type": "Feature",
      "properties": {
        "id": 11,
        "regione": "Molise",
        "capoluogo": "Campobasso"
      },
      "geometry": {
        "type": "Point",
        "coordinates": [14.6592, 41.5603]
      }
    },
    {
      "type": "Feature",
      "properties": {
        "id": 12,
        "regione": "Piemonte",
        "capoluogo": "Torino"
      },
      "geometry": {
        "type": "Point",
        "coordinates": [7.6869, 45.0703]
      }
    },
    {
      "type": "Feature",
      "properties": {
        "id": 13,
        "regione": "Puglia",
        "capoluogo": "Bari"
      },
      "geometry": {
        "type": "Point",
        "coordinates": [16.8719, 41.1171]
      }
    },
    {
      "type": "Feature",
      "properties": {
        "id": 14,
        "regione": "Sardegna",
        "capoluogo": "Cagliari"
      },
      "geometry": {
        "type": "Point",
        "coordinates": [9.1217, 39.2238]
      }
    },
    {
      "type": "Feature",
      "properties": {
        "id": 15,
        "regione": "Sicilia",
        "capoluogo": "Palermo"
      },
      "geometry": {
        "type": "Point",
        "coordinates": [13.3614, 38.1157]
      }
    },
    {
      "type": "Feature",
      "properties": {
        "id": 16,
        "regione": "Toscana",
        "capoluogo": "Firenze"
      },
      "geometry": {
        "type": "Point",
        "coordinates": [11.2558, 43.7696]
      }
    },
    {
      "type": "Feature",
      "properties": {
        "id": 17,
        "regione": "Trentino-Alto Adige",
        "capoluogo": "Trento"
      },
      "geometry": {
        "type": "Point",
        "coordinates": [11.1211, 46.0748]
      }
    },
    {
      "type": "Feature",
      "properties": {
        "id": 18,
        "regione": "Umbria",
        "capoluogo": "Perugia"
      },
      "geometry": {
        "type": "Point",
        "coordinates": [12.3888, 43.1107]
      }
    },
    {
      "type": "Feature",
      "properties": {
        "id": 19,
        "regione": "Valle d'Aosta",
        "capoluogo": "Aosta"
      },
      "geometry": {
        "type": "Point",
        "coordinates": [7.3201, 45.737]
      }
    },
    {
      "type": "Feature",
      "properties": {
        "id": 20,
        "regione": "Veneto",
        "capoluogo": "Venezia"
      },
      "geometry": {
        "type": "Point",
        "coordinates": [12.3155, 45.4408]
      }
    }
  ]
}